[{"OBJECT_NAME":"ONEWEB-0628","OBJECT_ID":"2023-004AF","EPOCH":"2026-03-21T12:05:08.909376","MEAN_MOTION":13.12442923,"ECCENTRICITY":0.00011445,"INCLINATION":87.9013,"RA_OF_ASC_NODE":8.0588,"ARG_OF_PERICENTER":67.1851,"MEAN_ANOMALY":292.9398,"EPHEMERIS_TYPE":0,"CLASSIFICATION_TYPE":"U","NORAD_CAT_ID":55169,"ELEMENT_SET_NO":999,"REV_AT_EPOCH":15653,"BSTAR":-0.00048924476,"MEAN_MOTION_DOT":-1.63e-6,"MEAN_MOTION_DDOT":0},{"OBJECT_NAME":"ONEWEB-0629","OBJECT_ID":"2023-004AG","EPOCH":"2026-03-21T13:25:06.024864","MEAN_MOTION":13.176492,"ECCENTRICITY":0.00015934,"INCLINATION":87.9166,"RA_OF_ASC_NODE":23.2724,"ARG_OF_PERICENTER":85.5724,"MEAN_ANOMALY":274.559,"EPHEMERIS_TYPE":0,"CLASSIFICATION_TYPE":"U","NORAD_CAT_ID":55170,"ELEMENT_SET_NO":999,"REV_AT_EPOCH":15604,"BSTAR":-4.0660218e-5,"MEAN_MOTION_DOT":-3.0e-8,"MEAN_MOTION_DDOT":0},{"OBJECT_NAME":"ONEWEB-0631","OBJECT_ID":"2023-004AH","EPOCH":"2026-03-21T11:07:50.992032","MEAN_MOTION":13.18687696,"ECCENTRICITY":0.00020904,"INCLINATION":87.9251,"RA_OF_ASC_NODE":352.8628,"ARG_OF_PERICENTER":66.5206,"MEAN_ANOMALY":293.6146,"EPHEMERIS_TYPE":0,"CLASSIFICATION_TYPE":"U","NORAD_CAT_ID":55171,"ELEMENT_SET_NO":999,"REV_AT_EPOCH":15811,"BSTAR":0.00025090314,"MEAN_MOTION_DOT":1.12e-6,"MEAN_MOTION_DDOT":0},{"OBJECT_NAME":"ONEWEB-0709","OBJECT_ID":"2023-004AJ","EPOCH":"2026-03-21T09:16:57.349632","MEAN_MOTION":13.11418876,"ECCENTRICITY":0.00027365,"INCLINATION":87.8881,"RA_OF_ASC_NODE":38.5358,"ARG_OF_PERICENTER":77.3593,"MEAN_ANOMALY":282.784,"EPHEMERIS_TYPE":0,"CLASSIFICATION_TYPE":"U","NORAD_CAT_ID":55172,"ELEMENT_SET_NO":999,"REV_AT_EPOCH":15436,"BSTAR":-0.0001847013,"MEAN_MOTION_DOT":-5.3e-7,"MEAN_MOTION_DDOT":0},{"OBJECT_NAME":"ONEWEB-0710","OBJECT_ID":"2023-004AK","EPOCH":"2026-03-21T13:45:45.317088","MEAN_MOTION":13.17648869,"ECCENTRICITY":0.00017636,"INCLINATION":87.9166,"RA_OF_ASC_NODE":23.2646,"ARG_OF_PERICENTER":73.7566,"MEAN_ANOMALY":286.3759,"EPHEMERIS_TYPE":0,"CLASSIFICATION_TYPE":"U","NORAD_CAT_ID":55173,"ELEMENT_SET_NO":999,"REV_AT_EPOCH":15604,"BSTAR":0.00012185593,"MEAN_MOTION_DOT":6.0e-7,"MEAN_MOTION_DDOT":0},{"OBJECT_NAME":"ONEWEB-0711","OBJECT_ID":"2023-004AL","EPOCH":"2026-03-21T14:05:01.658400","MEAN_MOTION":13.11416047,"ECCENTRICITY":0.00014433,"INCLINATION":87.889,"RA_OF_ASC_NODE":38.479,"ARG_OF_PERICENTER":57.8912,"MEAN_ANOMALY":302.2356,"EPHEMERIS_TYPE":0,"CLASSIFICATION_TYPE":"U","NORAD_CAT_ID":55174,"ELEMENT_SET_NO":999,"REV_AT_EPOCH":15435,"BSTAR":-0.0006390508,"MEAN_MOTION_DOT":-2.14e-6,"MEAN_MOTION_DDOT":0},{"OBJECT_NAME":"ONEWEB-0713","OBJECT_ID":"2023-004AM","EPOCH":"2026-03-21T09:02:17.123712","MEAN_MOTION":13.11418231,"ECCENTRICITY":0.00016296,"INCLINATION":87.8893,"RA_OF_ASC_NODE":38.5204,"ARG_OF_PERICENTER":70.0676,"MEAN_ANOMALY":290.0627,"EPHEMERIS_TYPE":0,"CLASSIFICATION_TYPE":"U","NORAD_CAT_ID":55175,"ELEMENT_SET_NO":999,"REV_AT_EPOCH":15431,"BSTAR":-0.0012068806,"MEAN_MOTION_DOT":-4.15e-6,"MEAN_MOTION_DDOT":0},{"OBJECT_NAME":"ONEWEB-0715","OBJECT_ID":"2023-004AN","EPOCH":"2026-03-21T08:54:57.543840","MEAN_MOTION":13.11417634,"ECCENTRICITY":0.00024643,"INCLINATION":87.8891,"RA_OF_ASC_NODE":38.5211,"ARG_OF_PERICENTER":69.6657,"MEAN_ANOMALY":290.4736,"EPHEMERIS_TYPE":0,"CLASSIFICATION_TYPE":"U","NORAD_CAT_ID":55176,"ELEMENT_SET_NO":999,"REV_AT_EPOCH":15435,"BSTAR":-0.001434908,"MEAN_MOTION_DOT":-4.96e-6,"MEAN_MOTION_DDOT":0},{"OBJECT_NAME":"ONEWEB-0716","OBJECT_ID":"2023-004AP","EPOCH":"2026-03-21T13:36:03.371616","MEAN_MOTION":13.17649338,"ECCENTRICITY":0.00019083,"INCLINATION":87.917,"RA_OF_ASC_NODE":23.2666,"ARG_OF_PERICENTER":85.888,"MEAN_ANOMALY":274.247,"EPHEMERIS_TYPE":0,"CLASSIFICATION_TYPE":"U","NORAD_CAT_ID":55177,"ELEMENT_SET_NO":999,"REV_AT_EPOCH":15604,"BSTAR":-0.00014732398,"MEAN_MOTION_DOT":-4.4e-7,"MEAN_MOTION_DDOT":0},{"OBJECT_NAME":"ONEWEB-0717","OBJECT_ID":"2023-004AQ","EPOCH":"2026-03-21T13:11:44.660544","MEAN_MOTION":13.17650068,"ECCENTRICITY":0.00016203,"INCLINATION":87.9179,"RA_OF_ASC_NODE":23.2504,"ARG_OF_PERICENTER":57.2103,"MEAN_ANOMALY":302.9185,"EPHEMERIS_TYPE":0,"CLASSIFICATION_TYPE":"U","NORAD_CAT_ID":55178,"ELEMENT_SET_NO":999,"REV_AT_EPOCH":15609,"BSTAR":0.00013626707,"MEAN_MOTION_DOT":6.6e-7,"MEAN_MOTION_DDOT":0},{"OBJECT_NAME":"ONEWEB-0719","OBJECT_ID":"2023-004AR","EPOCH":"2026-03-21T13:26:19.122720","MEAN_MOTION":13.176485,"ECCENTRICITY":0.00017692,"INCLINATION":87.9179,"RA_OF_ASC_NODE":23.2298,"ARG_OF_PERICENTER":84.2179,"MEAN_ANOMALY":275.9154,"EPHEMERIS_TYPE":0,"CLASSIFICATION_TYPE":"U","NORAD_CAT_ID":55179,"ELEMENT_SET_NO":999,"REV_AT_EPOCH":15604,"BSTAR":-6.8168235e-5,"MEAN_MOTION_DOT":-1.4e-7,"MEAN_MOTION_DDOT":0},{"OBJECT_NAME":"ONEWEB-0530","OBJECT_ID":"2023-029A","EPOCH":"2026-03-21T14:11:33.678528","MEAN_MOTION":13.20770946,"ECCENTRICITY":0.000119,"INCLINATION":87.9143,"RA_OF_ASC_NODE":291.9688,"ARG_OF_PERICENTER":80.9372,"MEAN_ANOMALY":279.1896,"EPHEMERIS_TYPE":0,"CLASSIFICATION_TYPE":"U","NORAD_CAT_ID":55796,"ELEMENT_SET_NO":999,"REV_AT_EPOCH":14958,"BSTAR":-1.3906842e-5,"MEAN_MOTION_DOT":7.0e-8,"MEAN_MOTION_DDOT":0},{"OBJECT_NAME":"ONEWEB-0534","OBJECT_ID":"2023-029B","EPOCH":"2026-03-21T13:53:22.956288","MEAN_MOTION":13.20771246,"ECCENTRICITY":0.00017241,"INCLINATION":87.9144,"RA_OF_ASC_NODE":291.9698,"ARG_OF_PERICENTER":91.4631,"MEAN_ANOMALY":268.67,"EPHEMERIS_TYPE":0,"CLASSIFICATION_TYPE":"U","NORAD_CAT_ID":55797,"ELEMENT_SET_NO":999,"REV_AT_EPOCH":14958,"BSTAR":-4.2172615e-5,"MEAN_MOTION_DOT":-4.0e-8,"MEAN_MOTION_DDOT":0},{"OBJECT_NAME":"ONEWEB-0556","OBJECT_ID":"2023-029C","EPOCH":"2026-03-21T14:02:28.461696","MEAN_MOTION":13.2077164,"ECCENTRICITY":0.000151,"INCLINATION":87.9141,"RA_OF_ASC_NODE":291.9707,"ARG_OF_PERICENTER":121.1985,"MEAN_ANOMALY":238.9296,"EPHEMERIS_TYPE":0,"CLASSIFICATION_TYPE":"U","NORAD_CAT_ID":55798,"ELEMENT_SET_NO":999,"REV_AT_EPOCH":14958,"BSTAR":-0.00017489011,"MEAN_MOTION_DOT":-5.8e-7,"MEAN_MOTION_DDOT":0},{"OBJECT_NAME":"ONEWEB-0562","OBJECT_ID":"2023-029D","EPOCH":"2026-03-21T13:44:17.290176","MEAN_MOTION":13.20771191,"ECCENTRICITY":8.059e-5,"INCLINATION":87.9144,"RA_OF_ASC_NODE":291.9534,"ARG_OF_PERICENTER":96.097,"MEAN_ANOMALY":264.0256,"EPHEMERIS_TYPE":0,"CLASSIFICATION_TYPE":"U","NORAD_CAT_ID":55799,"ELEMENT_SET_NO":999,"REV_AT_EPOCH":14958,"BSTAR":-0.0001119286,"MEAN_MOTION_DOT":-3.3e-7,"MEAN_MOTION_DDOT":0},{"OBJECT_NAME":"ONEWEB-0563","OBJECT_ID":"2023-029E","EPOCH":"2026-03-21T13:35:10.758336","MEAN_MOTION":13.20769575,"ECCENTRICITY":0.00017612,"INCLINATION":87.9142,"RA_OF_ASC_NODE":291.985,"ARG_OF_PERICENTER":95.6123,"MEAN_ANOMALY":264.5211,"EPHEMERIS_TYPE":0,"CLASSIFICATION_TYPE":"U","NORAD_CAT_ID":55800,"ELEMENT_SET_NO":999,"REV_AT_EPOCH":14957,"BSTAR":-0.00019019488,"MEAN_MOTION_DOT":-6.4e-7,"MEAN_MOTION_DDOT":0},{"OBJECT_NAME":"ONEWEB-0564","OBJECT_ID":"2023-029F","EPOCH":"2026-03-21T13:26:06.579168","MEAN_MOTION":13.20770691,"ECCENTRICITY":0.0001266,"INCLINATION":87.9145,"RA_OF_ASC_NODE":291.9585,"ARG_OF_PERICENTER":85.9853,"MEAN_ANOMALY":274.1425,"EPHEMERIS_TYPE":0,"CLASSIFICATION_TYPE":"U","NORAD_CAT_ID":55801,"ELEMENT_SET_NO":999,"REV_AT_EPOCH":14958,"BSTAR":-0.00019026437,"MEAN_MOTION_DOT":-6.4e-7,"MEAN_MOTION_DDOT":0}]
