ONEWEB-0628             
1 55169U 23004AF  26080.50357534 -.00000163  00000+0 -48924-3 0  9994
2 55169  87.9013   8.0588 0001144  67.1851 292.9398 13.12442923156536
ONEWEB-0629             
1 55170U 23004AG  26080.55909751 -.00000003  00000+0 -40660-4 0  9998
2 55170  87.9166  23.2724 0001593  85.5724 274.5590 13.17649200156047
ONEWEB-0631             
1 55171U 23004AH  26080.46378463  .00000112  00000+0  25090-3 0  9997
2 55171  87.9251 352.8628 0002090  66.5206 293.6146 13.18687696158115
ONEWEB-0709             
1 55172U 23004AJ  26080.38677488 -.00000053  00000+0 -18470-3 0  9998
2 55172  87.8881  38.5358 0002736  77.3593 282.7840 13.11418876154366
ONEWEB-0710             
1 55173U 23004AK  26080.57344117  .00000060  00000+0  12186-3 0  9994
2 55173  87.9166  23.2646 0001763  73.7566 286.3759 13.17648869156043
ONEWEB-0711             
1 55174U 23004AL  26080.58682475 -.00000214  00000+0 -63905-3 0  9996
2 55174  87.8890  38.4790 0001443  57.8912 302.2356 13.11416047154356
ONEWEB-0713             
1 55175U 23004AM  26080.37658708 -.00000415  00000+0 -12069-2 0  9993
2 55175  87.8893  38.5204 0001629  70.0676 290.0627 13.11418231154319
ONEWEB-0715             
1 55176U 23004AN  26080.37149935 -.00000496  00000+0 -14349-2 0  9993
2 55176  87.8891  38.5211 0002464  69.6657 290.4736 13.11417634154352
ONEWEB-0716             
1 55177U 23004AP  26080.56670569 -.00000044  00000+0 -14732-3 0  9993
2 55177  87.9170  23.2666 0001908  85.8880 274.2470 13.17649338156046
ONEWEB-0717             
1 55178U 23004AQ  26080.54982246  .00000066  00000+0  13627-3 0  9994
2 55178  87.9179  23.2504 0001620  57.2103 302.9185 13.17650068156098
ONEWEB-0719             
1 55179U 23004AR  26080.55994355 -.00000014  00000+0 -68168-4 0  9996
2 55179  87.9179  23.2298 0001769  84.2179 275.9154 13.17648500156044
ONEWEB-0530             
1 55796U 23029A   26080.59136202  .00000007  00000+0 -13907-4 0  9993
2 55796  87.9143 291.9688 0001190  80.9372 279.1896 13.20770946149587
ONEWEB-0534             
1 55797U 23029B   26080.57873792 -.00000004  00000+0 -42173-4 0  9999
2 55797  87.9144 291.9698 0001724  91.4631 268.6700 13.20771246149589
ONEWEB-0556             
1 55798U 23029C   26080.58505164 -.00000058  00000+0 -17489-3 0  9996
2 55798  87.9141 291.9707 0001510 121.1985 238.9296 13.20771640149582
ONEWEB-0562             
1 55799U 23029D   26080.57242234 -.00000033  00000+0 -11193-3 0  9991
2 55799  87.9144 291.9534 0000805  96.0970 264.0256 13.20771191149581
ONEWEB-0563             
1 55800U 23029E   26080.56609674 -.00000064  00000+0 -19019-3 0  9997
2 55800  87.9142 291.9850 0001761  95.6123 264.5211 13.20769575149578
ONEWEB-0564             
1 55801U 23029F   26080.55979837 -.00000064  00000+0 -19026-3 0  9996
2 55801  87.9145 291.9585 0001266  85.9853 274.1425 13.20770691149585
